GLOBALSTAR M035         
1 25851U 99037A   24182.89898132 -.00000041  00000+0  87125-3 0  9995
2 25851  51.9940 118.3640 0013096 131.2563 303.5173 11.04530728 57447
GLOBALSTAR M032         
1 25852U 99037B   24182.75390157  .00000039  00000+0  33983-2 0  9993
2 25852  51.9976 328.1355 0009339 295.1504  64.8326 11.19057731 95444
GLOBALSTAR M051         
1 25853U 99037C   24182.95291352 -.00000050  00000+0  52862-3 0  9995
2 25853  51.9758 168.1947 0001644 308.1455  51.9207 11.42199736 92252
GLOBALSTAR M030         
1 25854U 99037D   24182.83860176 -.00000046  00000+0  61356-3 0  9992
2 25854  51.9901 356.9191 0004380 132.2494 227.8694 11.55096294109544
GLOBALSTAR M048         
1 25872U 99041A   24182.90112119 -.00000072  00000+0 -51788-4 0  9991
2 25872  51.9375  89.7712 0013427 299.5247 140.2886 11.33847011 85130
GLOBALSTAR M026         
1 25873U 99041B   24182.86678902 -.00000103  00000+0 -14340-2 0  9990
2 25873  51.9985 240.0949 0001053  22.6362 149.3290 11.06834362109587
GLOBALSTAR M043         
1 25874U 99041C   24183.23974824 -.00000043  00000+0  76425-3 0  9990
2 25874  51.9359 182.6248 0012039  71.1514 302.6336 11.25680140 83388
GLOBALSTAR M028         
1 25875U 99041D   24183.20301436 -.00000055  00000+0  29274-3 0  9994
2 25875  51.9600 159.6179 0063654  29.1942 331.2454 12.50558709146295
